[
    {
        "Altitude(m)": 710076.3340303808,
        "Argument of Periapsis(deg)": 0.011390121186627068,
        "Eccentricity": 0.0,
        "Inclination(deg)": 45.0,
        "Latitude(deg)": -25.695600967067012,
        "Longitude(deg)": -64.3670179096628,
        "Mean Anomaly(deg)": -37.55768335251912,
        "RAAN(deg)": 64.98924805854179,
        "Satellite Name": "Constellation 1 305",
        "Satellite Number": 305,
        "Semi-Major Axis(m)": 7083131.272910544,
        "Time(s)": 190
    },
    {
        "Altitude(m)": 710062.5043277998,
        "Argument of Periapsis(deg)": 0.011450069192872472,
        "Eccentricity": 0.0,
        "Inclination(deg)": 45.0,
        "Latitude(deg)": -25.65776980342199,
        "Longitude(deg)": -64.3185057396355,
        "Mean Anomaly(deg)": -37.496982212269224,
        "RAAN(deg)": 64.98919146937624,
        "Satellite Name": "Constellation 1 305",
        "Satellite Number": 305,
        "Semi-Major Axis(m)": 7083131.272910544,
        "Time(s)": 191
    },
    {
        "Altitude(m)": 710048.6762312877,
        "Argument of Periapsis(deg)": 0.01151001719911788,
        "Eccentricity": 0.0,
        "Inclination(deg)": 45.0,
        "Latitude(deg)": -25.61991940766443,
        "Longitude(deg)": -64.27002662201774,
        "Mean Anomaly(deg)": -37.43628107201931,
        "RAAN(deg)": 64.98913488021066,
        "Satellite Name": "Constellation 1 305",
        "Satellite Number": 305,
        "Semi-Major Axis(m)": 7083131.272910544,
        "Time(s)": 192
    },
    {
        "Altitude(m)": 710034.8497880392,
        "Argument of Periapsis(deg)": 0.011569965205363285,
        "Eccentricity": 0.0,
        "Inclination(deg)": 45.0,
        "Latitude(deg)": -25.58204982348687,
        "Longitude(deg)": -64.22158066471145,
        "Mean Anomaly(deg)": -37.37557993176945,
        "RAAN(deg)": 64.98907829104509,
        "Satellite Name": "Constellation 1 305",
        "Satellite Number": 305,
        "Semi-Major Axis(m)": 7083131.272910544,
        "Time(s)": 193
    },
    {
        "Altitude(m)": 710021.0250452406,
        "Argument of Periapsis(deg)": 0.01162991321160869,
        "Eccentricity": 0.0,
        "Inclination(deg)": 45.0,
        "Latitude(deg)": -25.54416109451784,
        "Longitude(deg)": -64.17316747132692,
        "Mean Anomaly(deg)": -37.31487879151953,
        "RAAN(deg)": 64.98902170187951,
        "Satellite Name": "Constellation 1 305",
        "Satellite Number": 305,
        "Semi-Major Axis(m)": 7083131.272910544,
        "Time(s)": 194
    },
    {
        "Altitude(m)": 710007.2020500484,
        "Argument of Periapsis(deg)": 0.011689861217854095,
        "Eccentricity": 0.0,
        "Inclination(deg)": 45.0,
        "Latitude(deg)": -25.506253264323096,
        "Longitude(deg)": -64.12478714976653,
        "Mean Anomaly(deg)": -37.254177651269636,
        "RAAN(deg)": 64.98896511271396,
        "Satellite Name": "Constellation 1 305",
        "Satellite Number": 305,
        "Semi-Major Axis(m)": 7083131.272910544,
        "Time(s)": 195
    },
    {
        "Altitude(m)": 709993.3808496153,
        "Argument of Periapsis(deg)": 0.0117498092240995,
        "Eccentricity": 0.0,
        "Inclination(deg)": 45.0,
        "Latitude(deg)": -25.468326376404917,
        "Longitude(deg)": -64.07643963983628,
        "Mean Anomaly(deg)": -37.193476511019725,
        "RAAN(deg)": 64.98890852354839,
        "Satellite Name": "Constellation 1 305",
        "Satellite Number": 305,
        "Semi-Major Axis(m)": 7083131.272910544,
        "Time(s)": 196
    },
    {
        "Altitude(m)": 709979.5614910569,
        "Argument of Periapsis(deg)": 0.011809757230344905,
        "Eccentricity": 0.0,
        "Inclination(deg)": 45.0,
        "Latitude(deg)": -25.430380474202448,
        "Longitude(deg)": -64.02812488134309,
        "Mean Anomaly(deg)": -37.13277537076981,
        "RAAN(deg)": 64.98885193438281,
        "Satellite Name": "Constellation 1 305",
        "Satellite Number": 305,
        "Semi-Major Axis(m)": 7083131.272910544,
        "Time(s)": 197
    },
    {
        "Altitude(m)": 709965.7440214802,
        "Argument of Periapsis(deg)": 0.011869705236590313,
        "Eccentricity": 0.0,
        "Inclination(deg)": 45.0,
        "Latitude(deg)": -25.392415601091788,
        "Longitude(deg)": -63.979842814095335,
        "Mean Anomaly(deg)": -37.07207423051994,
        "RAAN(deg)": 64.98879534521724,
        "Satellite Name": "Constellation 1 305",
        "Satellite Number": 305,
        "Semi-Major Axis(m)": 7083131.272910544,
        "Time(s)": 198
    },
    {
        "Altitude(m)": 709951.9284879719,
        "Argument of Periapsis(deg)": 0.011929653242835719,
        "Eccentricity": 0.0,
        "Inclination(deg)": 45.0,
        "Latitude(deg)": -25.35443180038606,
        "Longitude(deg)": -63.931593377903,
        "Mean Anomaly(deg)": -37.01137309027004,
        "RAAN(deg)": 64.98873875605167,
        "Satellite Name": "Constellation 1 305",
        "Satellite Number": 305,
        "Semi-Major Axis(m)": 7083131.272910544,
        "Time(s)": 199
    }
]